[{"OBJECT_NAME":"QIANFAN-27","OBJECT_ID":"2024-185J","EPOCH":"2026-03-09T22:56:55.395744","MEAN_MOTION":14.27448593,"ECCENTRICITY":0.00081881,"INCLINATION":88.9753,"RA_OF_ASC_NODE":66.6975,"ARG_OF_PERICENTER":20.0445,"MEAN_ANOMALY":340.107,"EPHEMERIS_TYPE":0,"CLASSIFICATION_TYPE":"U","NORAD_CAT_ID":61560,"ELEMENT_SET_NO":999,"REV_AT_EPOCH":8260,"BSTAR":0.00025107237,"MEAN_MOTION_DOT":6.31e-6,"MEAN_MOTION_DDOT":0},{"OBJECT_NAME":"CZ-6A DEB","OBJECT_ID":"2025-096D","EPOCH":"2026-03-09T21:18:58.478976","MEAN_MOTION":14.26536009,"ECCENTRICITY":0.00137183,"INCLINATION":85.9901,"RA_OF_ASC_NODE":229.3143,"ARG_OF_PERICENTER":18.094,"MEAN_ANOMALY":342.0736,"EPHEMERIS_TYPE":0,"CLASSIFICATION_TYPE":"U","NORAD_CAT_ID":63921,"ELEMENT_SET_NO":999,"REV_AT_EPOCH":4296,"BSTAR":0.00019721677,"MEAN_MOTION_DOT":4.95e-6,"MEAN_MOTION_DDOT":0}]
